{
  "type": "FeatureCollection",
  "features": [
    {
      "type": "Feature",
      "properties": {
        "norad_id": 34492,
        "name": "IRIDIUM 33 DEB",
        "group": "iridium-33-debris",
        "lat": 4.891874078884417,
        "lon": 157.6264068320979,
        "alt_km": 806.3344433337988,
        "timestamp": "2025-12-04T13:52:00.826806+00:00",
        "meta_object_name": "IRIDIUM 33 DEB",
        "meta_object_id": "1997-051GH",
        "meta_epoch": "2025-12-04T06:22:25.669632",
        "meta_mean_motion": 14.2534836,
        "meta_eccentricity": 0.0190073,
        "meta_inclination": 86.4709,
        "meta_ra_of_asc_node": 338.0551,
        "meta_arg_of_pericenter": 265.7011,
        "meta_mean_anomaly": 110.4059,
        "meta_ephemeris_type": 0,
        "meta_classification_type": "U",
        "meta_norad_cat_id": 34492,
        "meta_element_set_no": 999,
        "meta_rev_at_epoch": 84938,
        "meta_bstar": 0.015697091,
        "meta_mean_motion_dot": 0.00044922,
        "meta_mean_motion_ddot": 0,
        "tle_line1": "1 34492U 97051GH  25338.26557488  .00044922  00000+0  15697-1 0  9999",
        "tle_line2": "2 34492  86.4709 338.0551 0190073 265.7011 110.4059 14.25348360849383"
      },
      "geometry": {
        "type": "Point",
        "coordinates": [
          157.6264068320979,
          4.891874078884417
        ]
      }
    },
    {
      "type": "Feature",
      "properties": {
        "norad_id": 34497,
        "name": "IRIDIUM 33 DEB",
        "group": "iridium-33-debris",
        "lat": 0.14437992205428088,
        "lon": 55.89711050850933,
        "alt_km": 746.4309378582466,
        "timestamp": "2025-12-04T13:52:00.826816+00:00",
        "meta_object_name": "IRIDIUM 33 DEB",
        "meta_object_id": "1997-051GN",
        "meta_epoch": "2025-12-04T05:42:21.206016",
        "meta_mean_motion": 14.27416416,
        "meta_eccentricity": 0.00797482,
        "meta_inclination": 86.2784,
        "meta_ra_of_asc_node": 56.0329,
        "meta_arg_of_pericenter": 7.2272,
        "meta_mean_anomaly": 46.8518,
        "meta_ephemeris_type": 0,
        "meta_classification_type": "U",
        "meta_norad_cat_id": 34497,
        "meta_element_set_no": 999,
        "meta_rev_at_epoch": 86762,
        "meta_bstar": 0.0011016015,
        "meta_mean_motion_dot": 2.812e-05,
        "meta_mean_motion_ddot": 0,
        "tle_line1": "1 34497U 97051GN  25338.23774544  .00002812  00000+0  11016-2 0  9999",
        "tle_line2": "2 34497  86.2784  56.0329 0079748   7.2272  46.8518 14.27416416867621"
      },
      "geometry": {
        "type": "Point",
        "coordinates": [
          55.89711050850933,
          0.14437992205428088
        ]
      }
    },
    {
      "type": "Feature",
      "properties": {
        "norad_id": 34508,
        "name": "IRIDIUM 33 DEB",
        "group": "iridium-33-debris",
        "lat": -17.657612542244987,
        "lon": -72.7397422407181,
        "alt_km": 722.3639101660829,
        "timestamp": "2025-12-04T13:52:00.826826+00:00",
        "meta_object_name": "IRIDIUM 33 DEB",
        "meta_object_id": "1997-051GZ",
        "meta_epoch": "2025-12-04T07:56:26.471616",
        "meta_mean_motion": 14.38300122,
        "meta_eccentricity": 0.00655219,
        "meta_inclination": 86.3699,
        "meta_ra_of_asc_node": 106.207,
        "meta_arg_of_pericenter": 200.3057,
        "meta_mean_anomaly": 159.5535,
        "meta_ephemeris_type": 0,
        "meta_classification_type": "U",
        "meta_norad_cat_id": 34508,
        "meta_element_set_no": 999,
        "meta_rev_at_epoch": 87188,
        "meta_bstar": 0.0041043781,
        "meta_mean_motion_dot": 0.00012833,
        "meta_mean_motion_ddot": 0,
        "tle_line1": "1 34508U 97051GZ  25338.33086194  .00012833  00000+0  41044-2 0  9998",
        "tle_line2": "2 34508  86.3699 106.2070 0065521 200.3057 159.5535 14.38300122871884"
      },
      "geometry": {
        "type": "Point",
        "coordinates": [
          -72.7397422407181,
          -17.657612542244987
        ]
      }
    },
    {
      "type": "Feature",
      "properties": {
        "norad_id": 34521,
        "name": "IRIDIUM 33 DEB",
        "group": "iridium-33-debris",
        "lat": 3.4828525389380065,
        "lon": 34.361806706402135,
        "alt_km": 685.1721563968313,
        "timestamp": "2025-12-04T13:52:00.826837+00:00",
        "meta_object_name": "IRIDIUM 33 DEB",
        "meta_object_id": "1997-051HN",
        "meta_epoch": "2025-12-04T05:38:41.083008",
        "meta_mean_motion": 14.63246221,
        "meta_eccentricity": 0.0001091,
        "meta_inclination": 86.3811,
        "meta_ra_of_asc_node": 34.2918,
        "meta_arg_of_pericenter": 285.1475,
        "meta_mean_anomaly": 74.9616,
        "meta_ephemeris_type": 0,
        "meta_classification_type": "U",
        "meta_norad_cat_id": 34521,
        "meta_element_set_no": 999,
        "meta_rev_at_epoch": 88348,
        "meta_bstar": 0.0023484201,
        "meta_mean_motion_dot": 0.0001213,
        "meta_mean_motion_ddot": 0,
        "tle_line1": "1 34521U 97051HN  25338.23519772  .00012130  00000+0  23484-2 0  9993",
        "tle_line2": "2 34521  86.3811  34.2918 0001091 285.1475  74.9616 14.63246221883489"
      },
      "geometry": {
        "type": "Point",
        "coordinates": [
          34.361806706402135,
          3.4828525389380065
        ]
      }
    },
    {
      "type": "Feature",
      "properties": {
        "norad_id": 34525,
        "name": "IRIDIUM 33 DEB",
        "group": "iridium-33-debris",
        "lat": 61.43957080625868,
        "lon": 57.01773456084222,
        "alt_km": 740.2664187883884,
        "timestamp": "2025-12-04T13:52:00.826847+00:00",
        "meta_object_name": "IRIDIUM 33 DEB",
        "meta_object_id": "1997-051HS",
        "meta_epoch": "2025-12-04T05:30:34.735680",
        "meta_mean_motion": 14.42873739,
        "meta_eccentricity": 0.00064585,
        "meta_inclination": 86.3736,
        "meta_ra_of_asc_node": 50.4756,
        "meta_arg_of_pericenter": 114.4855,
        "meta_mean_anomaly": 299.6591,
        "meta_ephemeris_type": 0,
        "meta_classification_type": "U",
        "meta_norad_cat_id": 34525,
        "meta_element_set_no": 999,
        "meta_rev_at_epoch": 87965,
        "meta_bstar": 0.00074624001,
        "meta_mean_motion_dot": 2.511e-05,
        "meta_mean_motion_ddot": 0,
        "tle_line1": "1 34525U 97051HS  25338.22956870  .00002511  00000+0  74624-3 0  9995",
        "tle_line2": "2 34525  86.3736  50.4756 0006458 114.4855 299.6591 14.42873739879656"
      },
      "geometry": {
        "type": "Point",
        "coordinates": [
          57.01773456084222,
          61.43957080625868
        ]
      }
    },
    {
      "type": "Feature",
      "properties": {
        "norad_id": 34529,
        "name": "IRIDIUM 33 DEB",
        "group": "iridium-33-debris",
        "lat": 23.26827761089602,
        "lon": 40.45731415293522,
        "alt_km": 758.8036163781253,
        "timestamp": "2025-12-04T13:52:00.826858+00:00",
        "meta_object_name": "IRIDIUM 33 DEB",
        "meta_object_id": "1997-051HW",
        "meta_epoch": "2025-12-04T03:45:24.303456",
        "meta_mean_motion": 14.40605404,
        "meta_eccentricity": 0.00037657,
        "meta_inclination": 86.3648,
        "meta_ra_of_asc_node": 39.0703,
        "meta_arg_of_pericenter": 207.724,
        "meta_mean_anomaly": 152.3759,
        "meta_ephemeris_type": 0,
        "meta_classification_type": "U",
        "meta_norad_cat_id": 34529,
        "meta_element_set_no": 999,
        "meta_rev_at_epoch": 88018,
        "meta_bstar": 0.00023195144,
        "meta_mean_motion_dot": 7.59e-06,
        "meta_mean_motion_ddot": 0,
        "tle_line1": "1 34529U 97051HW  25338.15653129  .00000759  00000+0  23195-3 0  9991",
        "tle_line2": "2 34529  86.3648  39.0703 0003765 207.7240 152.3759 14.40605404880180"
      },
      "geometry": {
        "type": "Point",
        "coordinates": [
          40.45731415293522,
          23.26827761089602
        ]
      }
    },
    {
      "type": "Feature",
      "properties": {
        "norad_id": 34538,
        "name": "IRIDIUM 33 DEB",
        "group": "iridium-33-debris",
        "lat": 17.957029108423836,
        "lon": -172.07748306937728,
        "alt_km": 773.914757994522,
        "timestamp": "2025-12-04T13:52:00.826868+00:00",
        "meta_object_name": "IRIDIUM 33 DEB",
        "meta_object_id": "1997-051JF",
        "meta_epoch": "2025-12-04T07:02:51.254592",
        "meta_mean_motion": 14.42571124,
        "meta_eccentricity": 0.00338519,
        "meta_inclination": 86.278,
        "meta_ra_of_asc_node": 9.2557,
        "meta_arg_of_pericenter": 356.4669,
        "meta_mean_anomaly": 130.6671,
        "meta_ephemeris_type": 0,
        "meta_classification_type": "U",
        "meta_norad_cat_id": 34538,
        "meta_element_set_no": 999,
        "meta_rev_at_epoch": 87634,
        "meta_bstar": 0.0020099662,
        "meta_mean_motion_dot": 6.735e-05,
        "meta_mean_motion_ddot": 0,
        "tle_line1": "1 34538U 97051JF  25338.29364878  .00006735  00000+0  20100-2 0  9998",
        "tle_line2": "2 34538  86.2780   9.2557 0033851 356.4669 130.6671 14.42571124876346"
      },
      "geometry": {
        "type": "Point",
        "coordinates": [
          -172.07748306937728,
          17.957029108423836
        ]
      }
    }
  ]
}